1 40730U 15033A   20095.67227199 -.00000072  00000-0  00000+0 0  9994
2 40730  55.5712 358.9121 0053494 350.6709   9.2615  2.00566771 34593
1 40730U 15033A   20096.17084782 -.00000073  00000-0  00000-0 0  9991
2 40730  55.5711 358.8921 0053512 350.7135   9.2202  2.00566705 34605
1 40730U 15033A   20096.66942441 -.00000073  00000-0  00000-0 0  9990
2 40730  55.5710 358.8721 0053517 350.7349   9.1999  2.00566647 34612
1 40730U 15033A   20099.16230354 -.00000080  00000-0  00000+0 0  9998
2 40730  55.5705 358.7724 0053549 350.8857   9.0552  2.00566524 34661
1 40730U 15033A   20099.16230364 -.00000080  00000-0  00000-0 0  9990
2 40730  55.5705 358.7724 0053552 350.8894   9.0515  2.00566518 34668
1 40730U 15033A   20100.15945128 -.00000085  00000-0  00000-0 0  9998
2 40730  55.5702 358.7324 0053562 350.9490   8.9931  2.00566570 34685
1 40730U 15033A   20101.15660344 -.00000090  00000-0  00000-0 0  9999
2 40730  55.5700 358.6925 0053565 351.0172   8.9252  2.00566451 34708
1 40730U 15033A   20102.15375159 -.00000096  00000-0  00000+0 0  9992
2 40730  55.5698 358.6525 0053578 351.0827   8.8591  2.00566425 34729
1 40730U 15033A   20103.15089995 -.00000101  00000-0  00000-0 0  9991
2 40730  55.5696 358.6126 0053584 351.1224   8.8180  2.00566369 34746
1 40730U 15033A   20105.14519441 -.00000108  00000-0  00000+0 0  9992
2 40730  55.5691 358.5327 0053600 351.2434   8.6954  2.00566432 34788
1 40730U 15033A   20106.14235235 -.00000108  00000-0  00000-0 0  9990
2 40730  55.5689 358.4928 0053617 351.3102   8.6290  2.00566171 34808
1 40730U 15033A   20106.64092541 -.00000107  00000-0  00000-0 0  9995
2 40730  55.5688 358.4728 0053648 351.2909   8.6483  2.00566222 34815
1 40730U 15033A   20107.13950198 -.00000107  00000-0  00000-0 0  9991
2 40730  55.5687 358.4529 0053651 351.3075   8.6324  2.00566207 34820
1 40730U 15033A   20108.13665167 -.00000104  00000-0  00000+0 0  9997
2 40730  55.5686 358.4130 0053641 351.4189   8.5240  2.00566362 34843
1 40730U 15033A   20111.12811923 -.00000090  00000-0  00000+0 0  9997
2 40730  55.5679 358.2934 0053666 351.5722   8.3808  2.00566243 34909
1 40730U 15033A   20113.12243141 -.00000082  00000-0  00000-0 0  9992
2 40730  55.5675 358.2136 0053685 351.6737   8.2858  2.00566133 34943
1 40730U 15033A   20115.11673948 -.00000076  00000-0  00000+0 0  9997
2 40730  55.5671 358.1339 0053696 351.7854   8.1782  2.00566043 34985
1 40730U 15033A   20115.61531738 -.00000075  00000-0  00000-0 0  9992
2 40730  55.5670 358.1139 0053705 351.8067   8.1572  2.00565958 34992
1 40730U 15033A   20118.10819772 -.00000070  00000-0  00000+0 0  9990
2 40730  55.5664 358.0142 0053734 351.9270   8.0361  2.00565756 35045
1 40730U 15033A   20119.10534941 -.00000068  00000-0  00000-0 0  9991
2 40730  55.5662 357.9743 0053736 351.9736   7.9885  2.00565686 35060
1 40730U 15033A   20119.60392481 -.00000068  00000-0  00000-0 0  9997
2 40730  55.5662 357.9544 0053740 352.0062   7.9555  2.00565661 35076
1 40730U 15033A   20120.10250123 -.00000067  00000-0  00000-0 0  9999
2 40730  55.5661 357.9344 0053739 352.0276   7.9338  2.00565624 35087
1 40730U 15033A   20121.59823294 -.00000066  00000-0  00000+0 0  9996
2 40730  55.5658 357.8746 0053731 352.1175   7.8439  2.00565499 35114
1 40730U 15033A   20122.09681179 -.00000065  00000-0  00000-0 0  9996
2 40730  55.5657 357.8546 0053744 352.1372   7.8244  2.00565399 35128
1 40730U 15033A   20124.09112450 -.00000066  00000-0  00000+0 0  9999
2 40730  55.5653 357.7748 0053753 352.2506   7.7141  2.00565296 35162
1 40730U 15033A   20124.58970291 -.00000067  00000-0  00000-0 0  9990
2 40730  55.5652 357.7549 0053753 352.2832   7.6825  2.00565279 35172
1 40730U 15033A   20125.08828223 -.00000068  00000-0  00000-0 0  9994
2 40730  55.5651 357.7349 0053749 352.3189   7.6479  2.00565234 35187
1 40730U 15033A   20126.08543950 -.00000071  00000-0  00000-0 0  9990
2 40730  55.5649 357.6950 0053750 352.3637   7.6045  2.00565190 35204
1 40730U 15033A   20127.08259582 -.00000075  00000-0  00000+0 0  9999
2 40730  55.5647 357.6551 0053755 352.4092   7.5596  2.00565142 35229
1 40730U 15033A   20129.07690486 -.00000086  00000-0  00000-0 0  9995
2 40730  55.5643 357.5753 0053766 352.4953   7.4715  2.00565074 35266
1 40730U 15033A   20130.07405861 -.00000092  00000-0  00000+0 0  9994
2 40730  55.5641 357.5353 0053747 352.5689   7.3961  2.00565052 35286
1 40730U 15033A   20130.07407190 -.00000092  00000-0  00000+0 0  9991
2 40730  55.5641 357.5353 0053839 352.4948   7.4693  2.00564547 35286
1 40730U 15033A   20130.07407190 -.00000092  00000-0  00000-0 0  9992
2 40730  55.5641 357.5353 0053839 352.4948   7.4693  2.00564547 35286
1 40730U 15033A   20131.07121378 -.00000097  00000-0  00000+0 0  9998
2 40730  55.5639 357.4954 0053736 352.6188   7.3441  2.00564977 35303
1 40730U 15033A   20132.06836621 -.00000100  00000-0  00000-0 0  9998
2 40730  55.5637 357.4555 0053756 352.6540   7.3070  2.00565014 35325
1 40730U 15033A   20133.56410013 -.00000101  00000-0  00000+0 0  9997
2 40730  55.5635 357.3956 0053759 352.7218   7.2381  2.00564987 35358
1 40730U 15033A   20133.56410013 -.00000101  00000-0  00000-0 0  9998
2 40730  55.5635 357.3956 0053759 352.7218   7.2381  2.00564987 35358
1 40730U 15033A   20134.56125742 -.00000099  00000-0  00000-0 0  9997
2 40730  55.5633 357.3557 0053775 352.7577   7.2027  2.00564986 35377
1 40730U 15033A   20135.05983810 -.00000098  00000-0  00000-0 0  9999
2 40730  55.5632 357.3358 0053772 352.7794   7.1815  2.00564940 35388
1 40730U 15033A   20136.05699806 -.00000094  00000-0  00000+0 0  9994
2 40730  55.5631 357.2960 0053782 352.8141   7.1486  2.00564920 35408
1 40730U 15033A   20136.55557847 -.00000092  00000-0  00000-0 0  9996
2 40730  55.5630 357.2761 0053786 352.8318   7.1320  2.00564910 35413
1 40730U 15033A   20137.55273991 -.00000088  00000-0  00000-0 0  9997
2 40730  55.5628 357.2362 0053784 352.8701   7.0964  2.00564879 35430
1 40730U 15033A   20138.05131995 -.00000086  00000-0  00000-0 0  9998
2 40730  55.5627 357.2162 0053777 352.8898   7.0781  2.00564884 35440
1 40730U 15033A   20139.04848187 -.00000082  00000-0  00000+0 0  9991
2 40730  55.5625 357.1764 0053779 352.9242   7.0463  2.00564832 35463
1 40730U 15033A   20140.04564309 -.00000078  00000-0  00000-0 0  9990
2 40730  55.5625 357.1364 0053792 352.9573   7.0153  2.00564767 35486
1 40730U 15033A   20141.04280391 -.00000075  00000-0  00000-0 0  9994
2 40730  55.5624 357.0965 0053785 352.9896   6.9845  2.00564710 35508
1 40730U 15033A   20142.03996386 -.00000072  00000-0  00000+0 0  9998
2 40730  55.5623 357.0567 0053776 353.0279   6.9470  2.00564642 35522
1 40730U 15033A   20142.53854390 -.00000071  00000-0  00000-0 0  9991
2 40730  55.5622 357.0368 0053766 353.0477   6.9273  2.00564592 35535
1 40730U 15033A   20143.03712309 -.00000070  00000-0  00000-0 0  9999
2 40730  55.5621 357.0169 0053766 353.0671   6.9078  2.00564562 35540
1 40730U 15033A   20149.02007302 -.00000060  00000-0  00000+0 0  9992
2 40730  55.5610 356.7777 0053759 353.2891   6.6778  2.00564087 35666
1 40730U 15033A   20150.51581573 -.00000059  00000-0  00000-0 0  9994
2 40730  55.5607 356.7179 0053763 353.3476   6.6199  2.00563994 35699
1 40730U 15033A   20151.51297902 -.00000060  00000-0  00000+0 0  9996
2 40730  55.5605 356.6780 0053773 353.3877   6.5808  2.00563880 35713
1 40730U 15033A   20151.51297902 -.00000060  00000-0  00000-0 0  9997
2 40730  55.5605 356.6780 0053773 353.3877   6.5808  2.00563880 35713
1 40730U 15033A   20155.00304769 -.00000073  00000-0  00000+0 0  9998
2 40730  55.5598 356.5385 0053773 353.5023   6.4664  2.00563729 35787
1 40730U 15033A   20156.00021045 -.00000079  00000-0  00000-0 0  9999
2 40730  55.5596 356.4986 0053786 353.5266   6.4400  2.00563584 35804
1 40730U 15033A   20156.99736397 -.00000085  00000-0  00000-0 0  9997
2 40730  55.5593 356.4587 0053788 353.5568   6.4069  2.00563745 35827
1 40730U 15033A   20161.48458950 -.00000097  00000-0  00000-0 0  9996
2 40730  55.5583 356.2793 0053775 353.6896   6.2649  2.00563589 35912
1 40730U 15033A   20161.48459042 -.00000097  00000-0  00000+0 0  9998
2 40730  55.5583 356.2793 0053779 353.6880   6.2665  2.00563563 35919
1 40730U 15033A   20161.48459042 -.00000097  00000-0  00000-0 0  9999
2 40730  55.5583 356.2793 0053779 353.6880   6.2665  2.00563563 35919
1 40730U 15033A   20161.98317192 -.00000096  00000-0  00000-0 0  9992
2 40730  55.5582 356.2594 0053774 353.7028   6.2518  2.00563575 35928
1 40730U 15033A   20162.48175533 -.00000094  00000-0  00000-0 0  9997
2 40730  55.5582 356.2395 0053776 353.7142   6.2407  2.00563536 35931
1 40730U 15033A   20162.98033798 -.00000093  00000-0  00000-0 0  9997
2 40730  55.5581 356.2196 0053774 353.7275   6.2280  2.00563539 35947
1 40730U 15033A   20163.97750471 -.00000089  00000-0  00000-0 0  9996
2 40730  55.5579 356.1797 0053770 353.7485   6.2086  2.00563514 35968
1 40730U 15033A   20164.47608861 -.00000087  00000-0  00000+0 0  9994
2 40730  55.5578 356.1598 0053770 353.7561   6.2019  2.00563491 35972
1 40730U 15033A   20164.97467257 -.00000085  00000-0  00000-0 0  9990
2 40730  55.5577 356.1399 0053763 353.7645   6.1945  2.00563468 35987
1 40730U 15033A   20165.97183917 -.00000082  00000-0  00000-0 0  9996
2 40730  55.5575 356.1000 0053761 353.7849   6.1761  2.00563470 36001
1 40730U 15033A   20166.96900879 -.00000078  00000-0  00000-0 0  9995
2 40730  55.5572 356.0602 0053758 353.8027   6.1599  2.00563353 36021
1 40730U 15033A   20167.96617553 -.00000075  00000-0  00000+0 0  9996
2 40730  55.5570 356.0204 0053764 353.8273   6.1366  2.00563297 36048
1 40730U 15033A   20168.96334004 -.00000073  00000-0  00000-0 0  9993
2 40730  55.5568 355.9806 0053765 353.8487   6.1156  2.00563310 36064
1 40730U 15033A   20169.96050612 -.00000071  00000-0  00000-0 0  9992
2 40730  55.5566 355.9408 0053763 353.8712   6.0928  2.00563221 36088
